LEMUR-2-PETERG          
1 42841U 17042S   26068.48235713  .00023240  00000+0  81076-3 0  9993
2 42841  97.3980 253.6596 0003700 341.6938  18.4169 15.29611459473171
STARLINK-31050          
1 58546U 23192R   26068.37415184 -.00001874  00000+0 -51192-4 0  9993
2 58546  53.1604  64.4434 0001367 103.7803 256.3350 15.30181401125931
